{
  "norad_id": 40071,
  "name": "DX1",
  "history": [
    {
      "epoch": "2026-03-28T21:39:08.510112",
      "apogee_km": 603.9646560486317,
      "perigee_km": 593.7100386923539,
      "latitude_deg": 83.30142953958092,
      "longitude_deg": 73.70945568010211,
      "semi_major_axis_km": 6976.974347370493,
      "eccentricity": 0.00073489,
      "inclination_deg": 98.3786,
      "raan_deg": 44.7878,
      "arg_perigee_deg": 162.0237,
      "mean_anomaly_deg": 198.124,
      "mean_motion_rev_day": 14.89711165
    },
    {
      "epoch": "2026-03-29T04:06:01.718208",
      "apogee_km": 603.9610062654119,
      "perigee_km": 593.7034660943809,
      "latitude_deg": -18.001342881114155,
      "longitude_deg": 99.50190912024118,
      "semi_major_axis_km": 6976.969236179896,
      "eccentricity": 0.0007351,
      "inclination_deg": 98.3787,
      "raan_deg": 45.0723,
      "arg_perigee_deg": 161.0959,
      "mean_anomaly_deg": 199.0531,
      "mean_motion_rev_day": 14.89712802
    }
  ]
}